1 49231U          19328.53680556  .00000000  00000-0  00000-0 0 00000
2 49231 097.7370 62.9340 0000000 000.0000 330.7030 15.01914300000000
1 49231U          19328.95625000  .00000000  00000-0  00000-0 0 00000
2 49231 097.7370 63.3470 0000000 000.0000 075.7030 15.01914300000000
1 49231U          19329.29305556  .00000000  00000-0  00000-0 0 00000
2 49231 097.7370 63.6800 0000000 000.0000 094.4540 15.01914300000000
1 49231U          19329.58194444  .00000000  00000-0  00000-0 0 00000
2 49231 097.7380 63.9640 0000000 000.0000 214.4550 15.01914300000000
1 49231U          19329.82847222  .00000000  00000-0  00000-0 0 00000
2 49231 097.7380 64.2070 0000000 000.0000 105.7050 15.01914300000000
1 49231U          19330.24930556  .00000000  00000-0  00000-0 0 00000
2 49231 097.7380 64.6220 0000000 000.0000 218.2060 15.01914300000000
1 49231U          19330.50972222  .00000000  00000-0  00000-0 0 00000
2 49231 097.7380 64.8790 0000000 000.0000 184.4560 15.01914300000000
1 49231U          19330.94444444  .00000000  00000-0  00000-0 0 00000
2 49231 097.7390 65.3080 0000000 000.0000 011.9570 15.01914300000000
1 49231U          19331.20902778  .00000000  00000-0  00000-0 0 00000
2 49231 097.7390 65.5680 0000000 000.0000 000.7070 15.01914300000000
1 49231U          19331.55555556  .00000000  00000-0  00000-0 0 00000
2 49231 097.7390 65.9100 0000000 000.0000 071.9580 15.01914300000000
1 49231U          19331.87708333  .00000000  00000-0  00000-0 0 00000
2 49231 097.7390 66.2270 0000000 000.0000 008.2090 15.01914300000000
1 49231U          19332.20625000  .00000000  00000-0  00000-0 0 00000
2 49231 097.7400 66.5510 0000000 000.0000 345.7090 15.01914300000000
1 49231U          19332.61597222  .00000000  00000-0  00000-0 0 00000
2 49231 097.7400 66.9550 0000000 000.0000 038.2100 15.01914300000000
1 49231U          19332.89583333  .00000000  00000-0  00000-0 0 00000
2 49231 097.7400 67.2310 0000000 000.0000 109.4600 15.01914300000000
